APRIZESAT 2             
1 28366U 04025A   26160.35259142  .00000143  00000+0  57883-4 0  9994
2 28366  98.1008 326.7769 0104264 273.7887  85.1385 14.38032818150512
SAUDICOMSAT 1           
1 28369U 04025D   26160.52290264  .00000372  00000+0  96262-4 0  9994
2 28369  98.5772 170.4475 0033083  48.5825 311.8206 14.55467621163018
SAUDICOMSAT 2           
1 28370U 04025E   26160.74141343  .00000243  00000+0  74380-4 0  9997
2 28370  98.6641 172.7767 0054146 282.5320  76.9820 14.49976974159024
APRIZESAT 1             
1 28372U 04025G   26160.29979362  .00000182  00000+0  56773-4 0  9997
2 28372  98.6304 170.8107 0044608 177.6138 182.5277 14.51773007160760
NANOSAT-1               
1 28493U 04049B   26160.66533994  .00000965  00000+0  13448-3 0  9995
2 28493  98.2267 297.1429 0003216 334.3012  25.8039 14.80144866154339
SAUDICOMSAT 7           
1 31119U 07012C   26160.74190543  .00000432  00000+0  86677-4 0  9999
2 31119  98.3774 134.7213 0054818 218.7892 140.9370 14.66103211 21348
SAUDICOMSAT 6           
1 31121U 07012E   26160.70162735  .00000619  00000+0  12782-3 0  9992
2 31121  98.4095 128.0790 0071603 351.2113   8.7828 14.62549099 19096
SAUDICOMSAT 5           
1 31124U 07012H   26160.65757406  .00000537  00000+0  10089-3 0  9991
2 31124  98.3485 135.3842 0048058 147.9428 212.4715 14.68147418 22499
SAUDICOMSAT 3           
1 31125U 07012J   26160.49515066  .00000807  00000+0  13960-3 0  9999
2 31125  98.3140 135.7675 0040484  76.7759 283.7958 14.70692943 23691
SAUDICOMSAT 4           
1 31127U 07012L   26160.63914580  .00000493  00000+0  10058-3 0  9997
2 31127  98.3979 133.0557 0062085 282.3221  77.1035 14.64504737 20181
APRIZESAT 4             
1 35684U 09041D   26160.77211969  .00000599  00000+0  78094-4 0  9991
2 35684  98.1412 235.9447 0042917 347.4797  12.5347 14.83869491910264
APRIZESAT 3             
1 35686U 09041F   26160.67578642  .00001221  00000+0  10988-3 0  9996
2 35686  98.2052 313.5406 0062782  91.8682 268.9730 14.96219098915253
S-NET D                 
1 43186U 18014G   26160.67658960  .00005113  00000+0  26489-3 0  9999
2 43186  97.5369  65.5139 0009578  53.1508 307.0602 15.16602415457626
S-NET B                 
1 43187U 18014H   26160.68789617  .00005042  00000+0  26145-3 0  9995
2 43187  97.5374  65.5115 0010086  48.2673 311.9421 15.16571708457624
S-NET A                 
1 43188U 18014J   26160.74148531  .00005052  00000+0  26170-3 0  9996
2 43188  97.5383  65.7721 0010010  48.9055 311.3041 15.16610982457639
S-NET C                 
1 43189U 18014K   26160.69173399  .00005014  00000+0  26003-3 0  9994
2 43189  97.5401  65.7960 0011214  41.6172 318.5912 15.16563550456175
SALSAT                  
1 46495U 20068K   26160.75398104  .00007599  00000+0  26681-3 0  9991
2 46495  97.8854 163.3666 0008713 338.5586  21.5287 15.29692121314224
OOV-CUBE (TUBSAT-30)    
1 60240U 24128F   26160.60303325  .00002162  00000+0  17320-3 0  9992
2 60240  61.9950 252.0179 0045573 132.0593 228.4390 15.02742005104972
LPNTSAT-001 (IOD-1)     
1 68408U 26065A   26160.23518866  .00002468  00000+0  12254-3 0  9995
2 68408  97.4031  40.9129 0017495  37.3631 322.8816 15.18495128 11057
